sat02176
1 02176U 66041A   20046.66013595  .00000198  00000-0  11870-3 0  9998
2 02176  90.1591  32.3729 0073824 218.9533 140.6317 14.02963889742953
